<?xml version="1.0" encoding="UTF-8"?>
<seiscomp xmlns="http://geofon.gfz-potsdam.de/ns/seiscomp3-schema/0.11" version="0.11">
  <EventParameters>
    <pick publicID="Pick/20190825174903.571047.568546">
      <time>
        <value>2019-08-25T17:47:53.219538Z</value>
      </time>
      <waveformID networkCode="CM" stationCode="RUS" locationCode="00" channelCode="BHZ"/>
      <filterID>ITAPER(4)&gt;&gt;BW(4,1,10)</filterID>
      <methodID>AIC</methodID>
      <phaseHint>P</phaseHint>
      <evaluationMode>automatic</evaluationMode>
      <creationInfo>
        <agencyID>gempa</agencyID>
        <author>scautopick@mars</author>
        <creationTime>2019-08-25T17:49:03.571066Z</creationTime>
      </creationInfo>
    </pick>
    <pick publicID="Pick/20190825174822.190318.568218">
      <time>
        <value>2019-08-25T17:47:51.649997Z</value>
      </time>
      <waveformID networkCode="GE" stationCode="MORC" channelCode="BHZ"/>
      <filterID>ITAPER(4)&gt;&gt;BW(4,1,10)</filterID>
      <methodID>AIC</methodID>
      <phaseHint>P</phaseHint>
      <evaluationMode>automatic</evaluationMode>
      <creationInfo>
        <agencyID>gempa</agencyID>
        <author>scautopick@mars</author>
        <creationTime>2019-08-25T17:48:22.190343Z</creationTime>
      </creationInfo>
    </pick>
    <pick publicID="Pick/20190825174155.479047.565291">
      <time>
        <value>2019-08-25T17:41:35.41Z</value>
      </time>
      <waveformID networkCode="NY" stationCode="MMPY" channelCode="HHZ"/>
      <filterID>ITAPER(4)&gt;&gt;BW(4,1,10)</filterID>
      <methodID>AIC</methodID>
      <phaseHint>P</phaseHint>
      <evaluationMode>automatic</evaluationMode>
      <creationInfo>
        <agencyID>gempa</agencyID>
        <author>scautopick@mars</author>
        <creationTime>2019-08-25T17:41:55.479076Z</creationTime>
      </creationInfo>
    </pick>
    <pick publicID="Pick/20190825173603.532652.833429">
      <time>
        <value>2019-08-25T17:35:59.171999Z</value>
      </time>
      <waveformID networkCode="AM" stationCode="RC144" locationCode="00" channelCode="SHZ"/>
      <filterID>ITAPER(4)&gt;&gt;BW(4,1,10)</filterID>
      <methodID>AIC</methodID>
      <phaseHint>P</phaseHint>
      <evaluationMode>automatic</evaluationMode>
      <creationInfo>
        <agencyID>gempa</agencyID>
        <author>autopick_v</author>
        <creationTime>2019-08-25T17:36:03.532679Z</creationTime>
      </creationInfo>
    </pick>
    <pick publicID="Pick/20190826002933.276561.286491">
      <time>
        <value>2019-08-25T17:34:25.964658Z</value>
      </time>
      <waveformID networkCode="AU" stationCode="WR8" channelCode="BHZ"/>
      <filterID>BW(4,1,5)</filterID>
      <phaseHint>P</phaseHint>
      <evaluationMode>manual</evaluationMode>
      <creationInfo>
        <agencyID>gempa</agencyID>
        <author>scolv@user</author>
        <creationTime>2019-08-26T00:29:33.276622Z</creationTime>
      </creationInfo>
    </pick>
    <pick publicID="Pick/20190825174245.049339.565615">
      <time>
        <value>2019-08-25T17:41:54.38Z</value>
      </time>
      <waveformID networkCode="IW" stationCode="PLID" locationCode="00" channelCode="BHZ"/>
      <filterID>ITAPER(4)&gt;&gt;BW(4,1,10)</filterID>
      <methodID>AIC</methodID>
      <phaseHint>P</phaseHint>
      <evaluationMode>automatic</evaluationMode>
      <creationInfo>
        <agencyID>gempa</agencyID>
        <author>scautopick@mars</author>
        <creationTime>2019-08-25T17:42:45.049363Z</creationTime>
      </creationInfo>
    </pick>
    <pick publicID="Pick/20190825174901.952226.568528">
      <time>
        <value>2019-08-25T17:48:03.254999Z</value>
      </time>
      <waveformID networkCode="GB" stationCode="CLGH" channelCode="BHZ"/>
      <filterID>ITAPER(4)&gt;&gt;BW(4,1,10)</filterID>
      <methodID>AIC</methodID>
      <phaseHint>P</phaseHint>
      <evaluationMode>automatic</evaluationMode>
      <creationInfo>
        <agencyID>gempa</agencyID>
        <author>scautopick@mars</author>
        <creationTime>2019-08-25T17:49:01.952258Z</creationTime>
      </creationInfo>
    </pick>
    <pick publicID="Pick/20190825174814.491287.568149">
      <time>
        <value>2019-08-25T17:47:51.845Z</value>
      </time>
      <waveformID networkCode="GE" stationCode="PSZ" channelCode="BHZ"/>
      <filterID>ITAPER(4)&gt;&gt;BW(4,1,10)</filterID>
      <methodID>AIC</methodID>
      <phaseHint>P</phaseHint>
      <evaluationMode>automatic</evaluationMode>
      <creationInfo>
        <agencyID>gempa</agencyID>
        <author>scautopick@mars</author>
        <creationTime>2019-08-25T17:48:14.491315Z</creationTime>
      </creationInfo>
    </pick>
    <pick publicID="Pick/20190825173559.856418.562566">
      <time>
        <value>2019-08-25T17:34:45.975Z</value>
      </time>
      <waveformID networkCode="AU" stationCode="STKA" channelCode="BHZ"/>
      <filterID>ITAPER(4)&gt;&gt;BW(4,1,10)</filterID>
      <methodID>AIC</methodID>
      <phaseHint>P</phaseHint>
      <evaluationMode>automatic</evaluationMode>
      <creationInfo>
        <agencyID>gempa</agencyID>
        <author>scautopick@mars</author>
        <creationTime>2019-08-25T17:35:59.856443Z</creationTime>
      </creationInfo>
    </pick>
    <pick publicID="Pick/20190825173338.746468.831846">
      <time>
        <value>2019-08-25T17:33:25.308Z</value>
      </time>
      <waveformID networkCode="AM" stationCode="R9A9D" locationCode="00" channelCode="SHZ"/>
      <filterID>ITAPER(4)&gt;&gt;BW(4,1,10)</filterID>
      <methodID>AIC</methodID>
      <phaseHint>P</phaseHint>
      <evaluationMode>automatic</evaluationMode>
      <creationInfo>
        <agencyID>gempa</agencyID>
        <author>autopick_v</author>
        <creationTime>2019-08-25T17:33:38.746507Z</creationTime>
      </creationInfo>
    </pick>
    <pick publicID="Pick/20190825174402.349831.566278">
      <time>
        <value>2019-08-25T17:41:42.944538Z</value>
      </time>
      <waveformID networkCode="IU" stationCode="MAKZ" locationCode="00" channelCode="BHZ"/>
      <filterID>ITAPER(4)&gt;&gt;BW(4,1,10)</filterID>
      <methodID>AIC</methodID>
      <phaseHint>P</phaseHint>
      <evaluationMode>automatic</evaluationMode>
      <creationInfo>
        <agencyID>gempa</agencyID>
        <author>scautopick@mars</author>
        <creationTime>2019-08-25T17:44:02.349853Z</creationTime>
      </creationInfo>
    </pick>
    <pick publicID="Pick/20190825174838.791688.568330">
      <time>
        <value>2019-08-25T17:47:57.27Z</value>
      </time>
      <waveformID networkCode="HT" stationCode="AGG" channelCode="HHZ"/>
      <filterID>ITAPER(4)&gt;&gt;BW(4,1,10)</filterID>
      <methodID>AIC</methodID>
      <phaseHint>P</phaseHint>
      <evaluationMode>automatic</evaluationMode>
      <creationInfo>
        <agencyID>gempa</agencyID>
        <author>scautopick@mars</author>
        <creationTime>2019-08-25T17:48:38.791714Z</creationTime>
      </creationInfo>
    </pick>
    <pick publicID="Pick/20190825173443.747652.561868">
      <time>
        <value>2019-08-25T17:33:57.269538Z</value>
      </time>
      <waveformID networkCode="AU" stationCode="ARMA" channelCode="BHZ"/>
      <filterID>ITAPER(4)&gt;&gt;BW(4,1,10)</filterID>
      <methodID>AIC</methodID>
      <phaseHint>P</phaseHint>
      <evaluationMode>automatic</evaluationMode>
      <creationInfo>
        <agencyID>gempa</agencyID>
        <author>scautopick@mars</author>
        <creationTime>2019-08-25T17:34:43.747679Z</creationTime>
      </creationInfo>
    </pick>
    <pick publicID="Pick/20190825173915.450476.564049">
      <time>
        <value>2019-08-25T17:38:14.719538Z</value>
      </time>
      <waveformID networkCode="IU" stationCode="INCN" locationCode="00" channelCode="BHZ"/>
      <filterID>ITAPER(4)&gt;&gt;BW(4,1,10)</filterID>
      <methodID>AIC</methodID>
      <phaseHint>P</phaseHint>
      <evaluationMode>automatic</evaluationMode>
      <creationInfo>
        <agencyID>gempa</agencyID>
        <author>scautopick@mars</author>
        <creationTime>2019-08-25T17:39:15.450508Z</creationTime>
      </creationInfo>
    </pick>
    <pick publicID="Pick/20190825174518.955274.566841">
      <time>
        <value>2019-08-25T17:42:03.88Z</value>
      </time>
      <waveformID networkCode="AE" stationCode="U15A" channelCode="HHZ"/>
      <filterID>ITAPER(4)&gt;&gt;BW(4,1,10)</filterID>
      <methodID>AIC</methodID>
      <phaseHint>P</phaseHint>
      <evaluationMode>automatic</evaluationMode>
      <creationInfo>
        <agencyID>gempa</agencyID>
        <author>scautopick@mars</author>
        <creationTime>2019-08-25T17:45:18.955294Z</creationTime>
      </creationInfo>
    </pick>
    <pick publicID="Pick/20190825174814.145128.568141">
      <time>
        <value>2019-08-25T17:48:03.425Z</value>
      </time>
      <waveformID networkCode="CH" stationCode="BNALP" channelCode="BHZ"/>
      <filterID>ITAPER(4)&gt;&gt;BW(4,1,10)</filterID>
      <methodID>AIC</methodID>
      <phaseHint>P</phaseHint>
      <evaluationMode>automatic</evaluationMode>
      <creationInfo>
        <agencyID>gempa</agencyID>
        <author>scautopick@mars</author>
        <creationTime>2019-08-25T17:48:14.145155Z</creationTime>
      </creationInfo>
    </pick>
    <pick publicID="Pick/20190825174838.776143.568327">
      <time>
        <value>2019-08-25T17:47:50.3Z</value>
      </time>
      <waveformID networkCode="HT" stationCode="ALN" channelCode="HHZ"/>
      <filterID>ITAPER(4)&gt;&gt;BW(4,1,10)</filterID>
      <methodID>AIC</methodID>
      <phaseHint>P</phaseHint>
      <evaluationMode>automatic</evaluationMode>
      <creationInfo>
        <agencyID>gempa</agencyID>
        <author>scautopick@mars</author>
        <creationTime>2019-08-25T17:48:38.776172Z</creationTime>
      </creationInfo>
    </pick>
    <pick publicID="Pick/20190826002933.276958.286492">
      <time>
        <value>2019-08-25T17:35:29.649143Z</value>
      </time>
      <waveformID networkCode="AU" stationCode="FITZ" channelCode="BHZ"/>
      <filterID>BW(4,1,5)</filterID>
      <phaseHint>P</phaseHint>
      <evaluationMode>manual</evaluationMode>
      <creationInfo>
        <agencyID>gempa</agencyID>
        <author>scolv@user</author>
        <creationTime>2019-08-26T00:29:33.277018Z</creationTime>
      </creationInfo>
    </pick>
    <pick publicID="Pick/20190825174844.44648.568385">
      <time>
        <value>2019-08-25T17:47:42.044538Z</value>
      </time>
      <waveformID networkCode="IU" stationCode="ANTO" locationCode="00" channelCode="BHZ"/>
      <filterID>ITAPER(4)&gt;&gt;BW(4,1,10)</filterID>
      <methodID>AIC</methodID>
      <phaseHint>P</phaseHint>
      <evaluationMode>automatic</evaluationMode>
      <creationInfo>
        <agencyID>gempa</agencyID>
        <author>scautopick@mars</author>
        <creationTime>2019-08-25T17:48:44.446507Z</creationTime>
      </creationInfo>
    </pick>
    <pick publicID="Pick/20190825174056.650403.564856">
      <time>
        <value>2019-08-25T17:39:58.019538Z</value>
      </time>
      <waveformID networkCode="IU" stationCode="SBA" locationCode="00" channelCode="BHZ"/>
      <filterID>ITAPER(4)&gt;&gt;BW(4,1,10)</filterID>
      <methodID>AIC</methodID>
      <phaseHint>P</phaseHint>
      <evaluationMode>automatic</evaluationMode>
      <creationInfo>
        <agencyID>gempa</agencyID>
        <author>scautopick@mars</author>
        <creationTime>2019-08-25T17:40:56.650428Z</creationTime>
      </creationInfo>
    </pick>
    <pick publicID="Pick/20190825174237.103236.565531">
      <time>
        <value>2019-08-25T17:41:53.06Z</value>
      </time>
      <waveformID networkCode="NN" stationCode="SHP" channelCode="HHZ"/>
      <filterID>ITAPER(4)&gt;&gt;BW(4,1,10)</filterID>
      <methodID>AIC</methodID>
      <phaseHint>P</phaseHint>
      <evaluationMode>automatic</evaluationMode>
      <creationInfo>
        <agencyID>gempa</agencyID>
        <author>scautopick@mars</author>
        <creationTime>2019-08-25T17:42:37.103279Z</creationTime>
      </creationInfo>
    </pick>
    <pick publicID="Pick/20190825174855.688075.568458">
      <time>
        <value>2019-08-25T17:47:37.569538Z</value>
      </time>
      <waveformID networkCode="IU" stationCode="OTAV" locationCode="00" channelCode="BHZ"/>
      <filterID>ITAPER(4)&gt;&gt;BW(4,1,10)</filterID>
      <methodID>AIC</methodID>
      <phaseHint>P</phaseHint>
      <evaluationMode>automatic</evaluationMode>
      <creationInfo>
        <agencyID>gempa</agencyID>
        <author>scautopick@mars</author>
        <creationTime>2019-08-25T17:48:55.688105Z</creationTime>
      </creationInfo>
    </pick>
    <pick publicID="Pick/20190825174202.857906.565373">
      <time>
        <value>2019-08-25T17:41:42.5483Z</value>
      </time>
      <waveformID networkCode="NN" stationCode="DSP" channelCode="HHZ"/>
      <filterID>ITAPER(4)&gt;&gt;BW(4,1,10)</filterID>
      <methodID>AIC</methodID>
      <phaseHint>P</phaseHint>
      <evaluationMode>automatic</evaluationMode>
      <creationInfo>
        <agencyID>gempa</agencyID>
        <author>scautopick@mars</author>
        <creationTime>2019-08-25T17:42:02.857925Z</creationTime>
      </creationInfo>
    </pick>
    <pick publicID="Pick/20190825173853.007321.563923">
      <time>
        <value>2019-08-25T17:38:06.319538Z</value>
      </time>
      <waveformID networkCode="KG" stationCode="TJN" channelCode="BHZ"/>
      <filterID>ITAPER(4)&gt;&gt;BW(4,1,10)</filterID>
      <methodID>AIC</methodID>
      <phaseHint>P</phaseHint>
      <evaluationMode>automatic</evaluationMode>
      <creationInfo>
        <agencyID>gempa</agencyID>
        <author>scautopick@mars</author>
        <creationTime>2019-08-25T17:38:53.007346Z</creationTime>
      </creationInfo>
    </pick>
    <pick publicID="Pick/20190825173503.227431.562050">
      <time>
        <value>2019-08-25T17:33:55.919538Z</value>
      </time>
      <waveformID networkCode="AU" stationCode="QLP" channelCode="BHZ"/>
      <filterID>ITAPER(4)&gt;&gt;BW(4,1,10)</filterID>
      <methodID>AIC</methodID>
      <phaseHint>P</phaseHint>
      <evaluationMode>automatic</evaluationMode>
      <creationInfo>
        <agencyID>gempa</agencyID>
        <author>scautopick@mars</author>
        <creationTime>2019-08-25T17:35:03.227456Z</creationTime>
      </creationInfo>
    </pick>
    <pick publicID="Pick/20190825173728.349027.563214">
      <time>
        <value>2019-08-25T17:36:22.769538Z</value>
      </time>
      <waveformID networkCode="IU" stationCode="MBWA" locationCode="00" channelCode="BHZ"/>
      <filterID>ITAPER(4)&gt;&gt;BW(4,1,10)</filterID>
      <methodID>AIC</methodID>
      <phaseHint>P</phaseHint>
      <evaluationMode>automatic</evaluationMode>
      <creationInfo>
        <agencyID>gempa</agencyID>
        <author>scautopick@mars</author>
        <creationTime>2019-08-25T17:37:28.349053Z</creationTime>
      </creationInfo>
    </pick>
    <pick publicID="Pick/20190825174036.752051.564681">
      <time>
        <value>2019-08-25T17:39:38.269538Z</value>
      </time>
      <waveformID networkCode="IU" stationCode="CASY" locationCode="00" channelCode="BHZ"/>
      <filterID>ITAPER(4)&gt;&gt;BW(4,1,10)</filterID>
      <methodID>AIC</methodID>
      <phaseHint>P</phaseHint>
      <evaluationMode>automatic</evaluationMode>
      <creationInfo>
        <agencyID>gempa</agencyID>
        <author>scautopick@mars</author>
        <creationTime>2019-08-25T17:40:36.752079Z</creationTime>
      </creationInfo>
    </pick>
    <pick publicID="Pick/20190825174046.577773.564774">
      <time>
        <value>2019-08-25T17:39:54.275Z</value>
      </time>
      <waveformID networkCode="GT" stationCode="VNDA" locationCode="00" channelCode="BHZ"/>
      <filterID>ITAPER(4)&gt;&gt;BW(4,1,10)</filterID>
      <methodID>AIC</methodID>
      <phaseHint>P</phaseHint>
      <evaluationMode>automatic</evaluationMode>
      <creationInfo>
        <agencyID>gempa</agencyID>
        <author>scautopick@mars</author>
        <creationTime>2019-08-25T17:40:46.577797Z</creationTime>
      </creationInfo>
    </pick>
    <pick publicID="Pick/20190825174120.451884.565023">
      <time>
        <value>2019-08-25T17:40:11.819538Z</value>
      </time>
      <waveformID networkCode="IU" stationCode="ULN" locationCode="00" channelCode="BHZ"/>
      <filterID>ITAPER(4)&gt;&gt;BW(4,1,10)</filterID>
      <methodID>AIC</methodID>
      <phaseHint>P</phaseHint>
      <evaluationMode>automatic</evaluationMode>
      <creationInfo>
        <agencyID>gempa</agencyID>
        <author>scautopick@mars</author>
        <creationTime>2019-08-25T17:41:20.451909Z</creationTime>
      </creationInfo>
    </pick>
    <pick publicID="Pick/20190826002933.276124.286490">
      <time>
        <value>2019-08-25T17:33:16.383462Z</value>
      </time>
      <waveformID networkCode="GE" stationCode="GENI" channelCode="BHZ"/>
      <filterID>BW(4,1,5)</filterID>
      <phaseHint>P</phaseHint>
      <evaluationMode>manual</evaluationMode>
      <creationInfo>
        <agencyID>gempa</agencyID>
        <author>scolv@user</author>
        <creationTime>2019-08-26T00:29:33.276185Z</creationTime>
      </creationInfo>
    </pick>
    <pick publicID="Pick/20190825174827.264432.568259">
      <time>
        <value>2019-08-25T17:48:13.894539Z</value>
      </time>
      <waveformID networkCode="CU" stationCode="GRGR" locationCode="00" channelCode="BHZ"/>
      <filterID>ITAPER(4)&gt;&gt;BW(4,1,10)</filterID>
      <methodID>AIC</methodID>
      <phaseHint>P</phaseHint>
      <evaluationMode>automatic</evaluationMode>
      <creationInfo>
        <agencyID>gempa</agencyID>
        <author>scautopick@mars</author>
        <creationTime>2019-08-25T17:48:27.264457Z</creationTime>
      </creationInfo>
    </pick>
    <pick publicID="Pick/20190825174753.002608.841561">
      <time>
        <value>2019-08-25T17:47:46.73Z</value>
      </time>
      <waveformID networkCode="AM" stationCode="R038C" locationCode="00" channelCode="SHZ"/>
      <filterID>ITAPER(4)&gt;&gt;BW(4,1,10)</filterID>
      <methodID>AIC</methodID>
      <phaseHint>P</phaseHint>
      <evaluationMode>automatic</evaluationMode>
      <creationInfo>
        <agencyID>gempa</agencyID>
        <author>autopick_v</author>
        <creationTime>2019-08-25T17:47:53.002641Z</creationTime>
      </creationInfo>
    </pick>
    <pick publicID="Pick/20190825174159.757698.565354">
      <time>
        <value>2019-08-25T17:41:06.844539Z</value>
      </time>
      <waveformID networkCode="IU" stationCode="COLA" locationCode="00" channelCode="BHZ"/>
      <filterID>ITAPER(4)&gt;&gt;BW(4,1,10)</filterID>
      <methodID>AIC</methodID>
      <phaseHint>P</phaseHint>
      <evaluationMode>automatic</evaluationMode>
      <creationInfo>
        <agencyID>gempa</agencyID>
        <author>scautopick@mars</author>
        <creationTime>2019-08-25T17:41:59.757727Z</creationTime>
      </creationInfo>
    </pick>
    <pick publicID="Pick/20190825174824.245344.568227">
      <time>
        <value>2019-08-25T17:48:08.669535Z</value>
      </time>
      <waveformID networkCode="MN" stationCode="BNI" channelCode="BHZ"/>
      <filterID>ITAPER(4)&gt;&gt;BW(4,1,10)</filterID>
      <methodID>AIC</methodID>
      <phaseHint>P</phaseHint>
      <evaluationMode>automatic</evaluationMode>
      <creationInfo>
        <agencyID>gempa</agencyID>
        <author>scautopick@mars</author>
        <creationTime>2019-08-25T17:48:24.24537Z</creationTime>
      </creationInfo>
    </pick>
    <pick publicID="Pick/20190825174940.962993.568845">
      <time>
        <value>2019-08-25T17:47:57.875Z</value>
      </time>
      <waveformID networkCode="GT" stationCode="CPUP" locationCode="00" channelCode="BHZ"/>
      <filterID>ITAPER(4)&gt;&gt;BW(4,1,10)</filterID>
      <methodID>AIC</methodID>
      <phaseHint>P</phaseHint>
      <evaluationMode>automatic</evaluationMode>
      <creationInfo>
