<?xml version="1.0" encoding="UTF-8"?>
<seiscomp xmlns="http://geofon.gfz-potsdam.de/ns/seiscomp3-schema/0.10" version="0.10">
  <EventParameters>
    <pick publicID="smi:ca.seismo/pick/solid/arrid/20170108.2347007/20170108.2347001">
      <time>
        <value>2017-01-08T23:47:28.6Z</value>
        <uncertainty>0.5</uncertainty>
      </time>
      <waveformID networkCode="CN" stationCode="RES" channelCode="BHZ"/>
      <phaseHint>P</phaseHint>
      <creationInfo>
        <agencyID>GSC</agencyID>
        <author>vpe</author>
        <creationTime>2018-09-11T00:00:00.0000Z</creationTime>
        <version>DAN</version>
      </creationInfo>
    </pick>
    <pick publicID="smi:ca.seismo/pick/solid/arrid/20170108.2347007/20170108.2347009">
      <time>
        <value>2017-01-08T23:47:38.325Z</value>
        <uncertainty>2</uncertainty>
      </time>
      <waveformID networkCode="CN" stationCode="RES" channelCode="BHN"/>
      <phaseHint>S</phaseHint>
      <creationInfo>
        <agencyID>GSC</agencyID>
        <author>vpe</author>
        <creationTime>2018-09-11T00:00:00.0000Z</creationTime>
        <version>DAN</version>
      </creationInfo>
    </pick>
    <pick publicID="smi:ca.seismo/pick/solid/arrid/20170108.2347007/20170108.2347003">
      <time>
        <value>2017-01-08T23:47:40.6Z</value>
        <uncertainty>0.5</uncertainty>
      </time>
      <waveformID networkCode="CN" stationCode="RES" channelCode="BHZ"/>
      <phaseHint>A</phaseHint>
      <creationInfo>
        <agencyID>GSC</agencyID>
        <author>vpe</author>
        <creationTime>2018-09-11T00:00:00.0000Z</creationTime>
        <version>DAN</version>
      </creationInfo>
    </pick>
    <pick publicID="smi:ca.seismo/pick/solid/arrid/20170108.2347007/20170108.2347004">
      <time>
        <value>2017-01-08T23:47:28.63Z</value>
      </time>
      <waveformID networkCode="CN" stationCode="RESN" channelCode="HHZ"/>
      <phaseHint>P</phaseHint>
      <creationInfo>
        <agencyID>GSC</agencyID>
        <author>vpe</author>
        <creationTime>2018-09-11T00:00:00.0000Z</creationTime>
        <version>DAN</version>
      </creationInfo>
    </pick>
    <pick publicID="smi:ca.seismo/pick/solid/arrid/20170108.2347007/20170108.2347007">
      <time>
        <value>2017-01-08T23:47:38.43Z</value>
      </time>
      <waveformID networkCode="CN" stationCode="RESN" channelCode="HHE"/>
      <phaseHint>S</phaseHint>
      <creationInfo>
        <agencyID>GSC</agencyID>
        <author>vpe</author>
        <creationTime>2018-09-11T00:00:00.0000Z</creationTime>
        <version>DAN</version>
      </creationInfo>
    </pick>
    <pick publicID="smi:ca.seismo/pick/solid/arrid/20170108.2347007/20170108.2347006">
      <time>
        <value>2017-01-08T23:47:39.71Z</value>
        <uncertainty>0.5</uncertainty>
      </time>
      <waveformID networkCode="CN" stationCode="RESN" channelCode="HHZ"/>
      <phaseHint>A</phaseHint>
      <creationInfo>
        <agencyID>GSC</agencyID>
        <author>vpe</author>
        <creationTime>2018-09-11T00:00:00.0000Z</creationTime>
        <version>DAN</version>
      </creationInfo>
    </pick>
    <pick publicID="smi:ca.seismo/pick/solid/arrid/20170108.2347007/20170108.2348003">
      <time>
        <value>2017-01-08T23:48:37.45Z</value>
        <uncertainty>0.5</uncertainty>
      </time>
      <waveformID networkCode="CN" stationCode="ILON" channelCode="BHZ"/>
      <phaseHint>P</phaseHint>
      <creationInfo>
        <agencyID>GSC</agencyID>
        <author>vpe</author>
        <creationTime>2018-09-11T00:00:00.0000Z</creationTime>
        <version>DAN</version>
      </creationInfo>
    </pick>
    <pick publicID="smi:ca.seismo/pick/solid/arrid/20170108.2347007/20170108.2349008">
      <time>
        <value>2017-01-08T23:49:40.9Z</value>
        <uncertainty>2</uncertainty>
      </time>
      <waveformID networkCode="CN" stationCode="ILON" channelCode="BHE"/>
      <phaseHint>S</phaseHint>
      <creationInfo>
        <agencyID>GSC</agencyID>
        <author>vpe</author>
        <creationTime>2018-09-11T00:00:00.0000Z</creationTime>
        <version>DAN</version>
      </creationInfo>
    </pick>
    <pick publicID="smi:ca.seismo/pick/solid/arrid/20170108.2347007/20170108.2350012">
      <time>
        <value>2017-01-08T23:50:15.7Z</value>
      </time>
      <waveformID networkCode="CN" stationCode="ILON" channelCode="BHE"/>
      <creationInfo>
        <agencyID>GSC</agencyID>
        <author>vpe</author>
        <creationTime>2018-09-11T00:00:00.0000Z</creationTime>
        <version>DAN</version>
      </creationInfo>
    </pick>
    <pick publicID="smi:ca.seismo/pick/solid/arrid/20170108.2347007/20170108.2350002">
      <time>
        <value>2017-01-08T23:50:25.025Z</value>
        <uncertainty>0.5</uncertainty>
      </time>
      <waveformID networkCode="CN" stationCode="ILON" channelCode="BHZ"/>
      <phaseHint>A</phaseHint>
      <creationInfo>
        <agencyID>GSC</agencyID>
        <author>vpe</author>
        <creationTime>2018-09-11T00:00:00.0000Z</creationTime>
        <version>DAN</version>
      </creationInfo>
    </pick>
    <pick publicID="smi:ca.seismo/pick/solid/arrid/20170108.2347007/20170108.2348002">
      <time>
        <value>2017-01-08T23:48:37.4Z</value>
        <uncertainty>0.5</uncertainty>
      </time>
      <waveformID networkCode="CN" stationCode="EUNU" channelCode="BHZ"/>
      <phaseHint>P</phaseHint>
      <creationInfo>
        <agencyID>GSC</agencyID>
        <author>vpe</author>
        <creationTime>2018-09-11T00:00:00.0000Z</creationTime>
        <version>DAN</version>
      </creationInfo>
    </pick>
    <pick publicID="smi:ca.seismo/pick/solid/arrid/20170108.2347007/20170108.2349009">
      <time>
        <value>2017-01-08T23:49:41.55Z</value>
        <uncertainty>0.5</uncertainty>
      </time>
      <waveformID networkCode="CN" stationCode="EUNU" channelCode="BHE"/>
      <phaseHint>S</phaseHint>
      <creationInfo>
        <agencyID>GSC</agencyID>
        <author>vpe</author>
        <creationTime>2018-09-11T00:00:00.0000Z</creationTime>
        <version>DAN</version>
      </creationInfo>
    </pick>
    <pick publicID="smi:ca.seismo/pick/solid/arrid/20170108.2347007/20170108.2350022">
      <time>
        <value>2017-01-08T23:50:16.425Z</value>
      </time>
      <waveformID networkCode="CN" stationCode="EUNU" channelCode="BHE"/>
      <creationInfo>
        <agencyID>GSC</agencyID>
        <author>vpe</author>
        <creationTime>2018-09-11T00:00:00.0000Z</creationTime>
        <version>DAN</version>
      </creationInfo>
    </pick>
    <pick publicID="smi:ca.seismo/pick/solid/arrid/20170108.2347007/20170108.2350023">
      <time>
        <value>2017-01-08T23:50:18.45Z</value>
        <uncertainty>0.5</uncertainty>
      </time>
      <waveformID networkCode="CN" stationCode="EUNU" channelCode="BHZ"/>
      <phaseHint>A</phaseHint>
      <creationInfo>
        <agencyID>GSC</agencyID>
        <author>vpe</author>
        <creationTime>2018-09-11T00:00:00.0000Z</creationTime>
        <version>DAN</version>
      </creationInfo>
    </pick>
    <pick publicID="smi:ca.seismo/pick/solid/arrid/20170108.2347007/20170108.2348004">
      <time>
        <value>2017-01-08T23:48:45.85Z</value>
        <uncertainty>0.5</uncertainty>
      </time>
      <waveformID networkCode="IM" stationCode="CB31" channelCode="BHZ"/>
      <phaseHint>P</phaseHint>
      <creationInfo>
        <agencyID>GSC</agencyID>
        <author>vpe</author>
        <creationTime>2018-09-11T00:00:00.0000Z</creationTime>
        <version>DAN</version>
      </creationInfo>
    </pick>
    <pick publicID="smi:ca.seismo/pick/solid/arrid/20170108.2347007/20170108.2349010">
      <time>
        <value>2017-01-08T23:49:57.75Z</value>
        <uncertainty>0.5</uncertainty>
      </time>
      <waveformID networkCode="IM" stationCode="CB31" channelCode="BHE"/>
      <phaseHint>S</phaseHint>
      <creationInfo>
        <agencyID>GSC</agencyID>
        <author>vpe</author>
        <creationTime>2018-09-11T00:00:00.0000Z</creationTime>
        <version>DAN</version>
      </creationInfo>
    </pick>
    <pick publicID="smi:ca.seismo/pick/solid/arrid/20170108.2347007/20170108.2350019">
      <time>
        <value>2017-01-08T23:50:34.6Z</value>
      </time>
      <waveformID networkCode="IM" stationCode="CB31" channelCode="BHE"/>
      <creationInfo>
        <agencyID>GSC</agencyID>
        <author>vpe</author>
        <creationTime>2018-09-11T00:00:00.0000Z</creationTime>
        <version>DAN</version>
      </creationInfo>
    </pick>
    <pick publicID="smi:ca.seismo/pick/solid/arrid/20170108.2347007/20170108.2350020">
      <time>
        <value>2017-01-08T23:50:53.3Z</value>
        <uncertainty>0.5</uncertainty>
      </time>
      <waveformID networkCode="IM" stationCode="CB31" channelCode="BHZ"/>
      <phaseHint>A</phaseHint>
      <creationInfo>
        <agencyID>GSC</agencyID>
        <author>vpe</author>
        <creationTime>2018-09-11T00:00:00.0000Z</creationTime>
        <version>DAN</version>
      </creationInfo>
    </pick>
    <pick publicID="smi:ca.seismo/pick/solid/arrid/20170108.2347007/20170108.2349011">
      <time>
        <value>2017-01-08T23:49:05.925Z</value>
        <uncertainty>2</uncertainty>
      </time>
      <waveformID networkCode="CN" stationCode="CLRN" channelCode="BHZ"/>
      <phaseHint>P</phaseHint>
      <creationInfo>
        <agencyID>GSC</agencyID>
        <author>vpe</author>
        <creationTime>2018-09-11T00:00:00.0000Z</creationTime>
        <version>DAN</version>
      </creationInfo>
    </pick>
    <pick publicID="smi:ca.seismo/pick/solid/arrid/20170108.2347007/20170108.2350014">
      <time>
        <value>2017-01-08T23:50:31.625Z</value>
        <uncertainty>0.5</uncertainty>
      </time>
      <waveformID networkCode="CN" stationCode="CLRN" channelCode="BHE"/>
      <phaseHint>S</phaseHint>
      <creationInfo>
        <agencyID>GSC</agencyID>
        <author>vpe</author>
        <creationTime>2018-09-11T00:00:00.0000Z</creationTime>
        <version>DAN</version>
      </creationInfo>
    </pick>
    <pick publicID="smi:ca.seismo/pick/solid/arrid/20170108.2347007/20170108.2351038">
      <time>
        <value>2017-01-08T23:51:24.125Z</value>
      </time>
      <waveformID networkCode="CN" stationCode="CLRN" channelCode="BHE"/>
      <creationInfo>
        <agencyID>GSC</agencyID>
        <author>vpe</author>
        <creationTime>2018-09-11T00:00:00.0000Z</creationTime>
        <version>DAN</version>
      </creationInfo>
    </pick>
    <pick publicID="smi:ca.seismo/pick/solid/arrid/20170108.2347007/20170108.2351001">
      <time>
        <value>2017-01-08T23:51:38.65Z</value>
        <uncertainty>0.5</uncertainty>
      </time>
      <waveformID networkCode="CN" stationCode="CLRN" channelCode="BHZ"/>
      <phaseHint>A</phaseHint>
      <creationInfo>
        <agencyID>GSC</agencyID>
        <author>vpe</author>
        <creationTime>2018-09-11T00:00:00.0000Z</creationTime>
        <version>DAN</version>
      </creationInfo>
    </pick>
    <pick publicID="smi:ca.seismo/pick/solid/arrid/20170108.2347007/20170108.2349004">
      <time>
        <value>2017-01-08T23:49:23.54Z</value>
        <uncertainty>0.5</uncertainty>
      </time>
      <waveformID networkCode="DK" stationCode="KULLO" channelCode="HHZ"/>
      <phaseHint>P</phaseHint>
      <creationInfo>
        <agencyID>GSC</agencyID>
        <author>vpe</author>
        <creationTime>2018-09-11T00:00:00.0000Z</creationTime>
        <version>DAN</version>
      </creationInfo>
    </pick>
    <pick publicID="smi:ca.seismo/pick/solid/arrid/20170108.2347007/20170108.2351002">
      <time>
        <value>2017-01-08T23:51:01.29Z</value>
        <uncertainty>2</uncertainty>
      </time>
      <waveformID networkCode="DK" stationCode="KULLO" channelCode="HHE"/>
      <phaseHint>S</phaseHint>
      <creationInfo>
        <agencyID>GSC</agencyID>
        <author>vpe</author>
        <creationTime>2018-09-11T00:00:00.0000Z</creationTime>
        <version>DAN</version>
      </creationInfo>
    </pick>
    <pick publicID="smi:ca.seismo/pick/solid/arrid/20170108.2347007/20170108.2352019">
      <time>
        <value>2017-01-08T23:52:00.92Z</value>
      </time>
      <waveformID networkCode="DK" stationCode="KULLO" channelCode="HHN"/>
      <creationInfo>
        <agencyID>GSC</agencyID>
        <author>vpe</author>
        <creationTime>2018-09-11T00:00:00.0000Z</creationTime>
        <version>DAN</version>
      </creationInfo>
    </pick>
    <pick publicID="smi:ca.seismo/pick/solid/arrid/20170108.2347007/20170108.2352001">
      <time>
        <value>2017-01-08T23:52:36.83Z</value>
        <uncertainty>0.5</uncertainty>
      </time>
      <waveformID networkCode="DK" stationCode="KULLO" channelCode="HHZ"/>
      <phaseHint>A</phaseHint>
      <creationInfo>
        <agencyID>GSC</agencyID>
        <author>vpe</author>
        <creationTime>2018-09-11T00:00:00.0000Z</creationTime>
        <version>DAN</version>
      </creationInfo>
    </pick>
    <pick publicID="smi:ca.seismo/pick/solid/arrid/20170108.2347007/20170108.2349005">
      <time>
        <value>2017-01-08T23:49:29.45Z</value>
        <uncertainty>0.5</uncertainty>
      </time>
      <waveformID networkCode="TA" stationCode="A36M" channelCode="BHZ"/>
      <phaseHint>P</phaseHint>
      <creationInfo>
        <agencyID>GSC</agencyID>
        <author>vpe</author>
        <creationTime>2018-09-11T00:00:00.0000Z</creationTime>
        <version>DAN</version>
      </creationInfo>
    </pick>
    <pick publicID="smi:ca.seismo/pick/solid/arrid/20170108.2347007/20170108.2351022">
      <time>
        <value>2017-01-08T23:51:12.4Z</value>
        <uncertainty>0.5</uncertainty>
      </time>
      <waveformID networkCode="TA" stationCode="A36M" channelCode="BHN"/>
      <phaseHint>S</phaseHint>
      <creationInfo>
        <agencyID>GSC</agencyID>
        <author>vpe</author>
        <creationTime>2018-09-11T00:00:00.0000Z</creationTime>
        <version>DAN</version>
      </creationInfo>
    </pick>
    <pick publicID="smi:ca.seismo/pick/solid/arrid/20170108.2347007/20170108.2352020">
      <time>
        <value>2017-01-08T23:52:15.175Z</value>
      </time>
      <waveformID networkCode="TA" stationCode="A36M" channelCode="BHN"/>
      <creationInfo>
        <agencyID>GSC</agencyID>
        <author>vpe</author>
        <creationTime>2018-09-11T00:00:00.0000Z</creationTime>
        <version>DAN</version>
      </creationInfo>
    </pick>
    <pick publicID="smi:ca.seismo/pick/solid/arrid/20170108.2347007/20170108.2352025">
      <time>
        <value>2017-01-08T23:52:16.725Z</value>
        <uncertainty>0.5</uncertainty>
      </time>
      <waveformID networkCode="TA" stationCode="A36M" channelCode="BHZ"/>
      <phaseHint>A</phaseHint>
      <creationInfo>
        <agencyID>GSC</agencyID>
        <author>vpe</author>
        <creationTime>2018-09-11T00:00:00.0000Z</creationTime>
        <version>DAN</version>
      </creationInfo>
    </pick>
    <pick publicID="smi:ca.seismo/pick/solid/arrid/20170108.2347007/20170108.2349012">
      <time>
        <value>2017-01-08T23:49:29.35Z</value>
        <uncertainty>0.5</uncertainty>
      </time>
      <waveformID networkCode="CN" stationCode="KUKN" channelCode="BHZ"/>
      <phaseHint>P</phaseHint>
      <creationInfo>
        <agencyID>GSC</agencyID>
        <author>vpe</author>
        <creationTime>2018-09-11T00:00:00.0000Z</creationTime>
        <version>DAN</version>
      </creationInfo>
    </pick>
    <pick publicID="smi:ca.seismo/pick/solid/arrid/20170108.2347007/20170108.2351004">
      <time>
        <value>2017-01-08T23:51:12.7Z</value>
        <uncertainty>0.5</uncertainty>
      </time>
      <waveformID networkCode="CN" stationCode="KUKN" channelCode="BHE"/>
      <phaseHint>S</phaseHint>
      <creationInfo>
        <agencyID>GSC</agencyID>
        <author>vpe</author>
        <creationTime>2018-09-11T00:00:00.0000Z</creationTime>
        <version>DAN</version>
      </creationInfo>
    </pick>
    <pick publicID="smi:ca.seismo/pick/solid/arrid/20170108.2347007/20170108.2352013">
      <time>
        <value>2017-01-08T23:52:14.875Z</value>
      </time>
      <waveformID networkCode="CN" stationCode="KUKN" channelCode="BHE"/>
      <creationInfo>
        <agencyID>GSC</agencyID>
        <author>vpe</author>
        <creationTime>2018-09-11T00:00:00.0000Z</creationTime>
        <version>DAN</version>
      </creationInfo>
    </pick>
    <pick publicID="smi:ca.seismo/pick/solid/arrid/20170108.2347007/20170108.2352004">
      <time>
        <value>2017-01-08T23:52:29.075Z</value>
        <uncertainty>0.5</uncertainty>
      </time>
      <waveformID networkCode="CN" stationCode="KUKN" channelCode="BHZ"/>
      <phaseHint>A</phaseHint>
      <creationInfo>
        <agencyID>GSC</agencyID>
        <author>vpe</author>
        <creationTime>2018-09-11T00:00:00.0000Z</creationTime>
        <version>DAN</version>
      </creationInfo>
    </pick>
    <pick publicID="smi:ca.seismo/pick/solid/arrid/20170108.2347007/20170108.2349013">
      <time>
        <value>2017-01-08T23:49:31.925Z</value>
        <uncertainty>0.5</uncertainty>
      </time>
      <waveformID networkCode="II" stationCode="ALE" locationCode="00" channelCode="BHZ_00"/>
      <phaseHint>P</phaseHint>
      <creationInfo>
        <agencyID>GSC</agencyID>
        <author>vpe</author>
        <creationTime>2018-09-11T00:00:00.0000Z</creationTime>
        <version>DAN</version>
      </creationInfo>
    </pick>
    <pick publicID="smi:ca.seismo/pick/solid/arrid/20170108.2347007/20170108.2351023">
      <time>
        <value>2017-01-08T23:51:16.725Z</value>
        <uncertainty>0.5</uncertainty>
      </time>
      <waveformID networkCode="II" stationCode="ALE" locationCode="00" channelCode="BH2_00"/>
      <phaseHint>S</phaseHint>
      <creationInfo>
        <agencyID>GSC</agencyID>
        <author>vpe</author>
        <creationTime>2018-09-11T00:00:00.0000Z</creationTime>
        <version>DAN</version>
      </creationInfo>
    </pick>
    <pick publicID="smi:ca.seismo/pick/solid/arrid/20170108.2347007/20170108.2352022">
      <time>
        <value>2017-01-08T23:52:22.85Z</value>
      </time>
      <waveformID networkCode="II" stationCode="ALE" locationCode="00" channelCode="BH2_00"/>
      <creationInfo>
        <agencyID>GSC</agencyID>
        <author>vpe</author>
        <creationTime>2018-09-11T00:00:00.0000Z</creationTime>
        <version>DAN</version>
      </creationInfo>
    </pick>
    <pick publicID="smi:ca.seismo/pick/solid/arrid/20170108.2347007/20170108.2352023">
      <time>
        <value>2017-01-08T23:52:24.85Z</value>
        <uncertainty>0.5</uncertainty>
      </time>
      <waveformID networkCode="II" stationCode="ALE" locationCode="00" channelCode="BHZ_00"/>
      <phaseHint>A</phaseHint>
      <creationInfo>
        <agencyID>GSC</agencyID>
        <author>vpe</author>
        <creationTime>2018-09-11T00:00:00.0000Z</creationTime>
        <version>DAN</version>
      </creationInfo>
    </pick>
    <pick publicID="smi:ca.seismo/pick/solid/arrid/20170108.2347007/20170108.2349014">
      <time>
        <value>2017-01-08T23:49:45.0000Z</value>
        <uncertainty>2</uncertainty>
      </time>
      <waveformID networkCode="TA" stationCode="C36M" channelCode="BHZ"/>
      <phaseHint>P</phaseHint>
      <creationInfo>
        <agencyID>GSC</agencyID>
        <author>vpe</author>
        <creationTime>2018-09-11T00:00:00.0000Z</creationTime>
        <version>DAN</version>
      </creationInfo>
    </pick>
    <pick publicID="smi:ca.seismo/pick/solid/arrid/20170108.2347007/20170108.2351025">
      <time>
        <value>2017-01-08T23:51:40.95Z</value>
        <uncertainty>0.5</uncertainty>
      </time>
      <waveformID networkCode="TA" stationCode="C36M" channelCode="BHN"/>
