<?xml version="1.0" encoding="UTF-8"?>
<seiscomp xmlns="http://geofon.gfz-potsdam.de/ns/seiscomp3-schema/0.9" version="0.9">
  <EventParameters>
    <pick publicID="smi:ca.seismo/pick/solid/arrid/20180506.0759001/20180506.0759001">
      <time>
        <value>2018-05-06T07:59:41.220000Z</value>
        <uncertainty>0.125</uncertainty>
      </time>
      <waveformID networkCode="CN" stationCode="A16" locationCode="" channelCode="HHZ"/>
      <phaseHint>P</phaseHint>
      <polarity>negative</polarity>
      <creationInfo>
        <agencyID>GSC</agencyID>
        <author>vpe</author>
        <creationTime>2018-05-07T00:00:00.000000Z</creationTime>
        <version>DAN</version>
      </creationInfo>
    </pick>
    <pick publicID="smi:ca.seismo/pick/solid/arrid/20180506.0759001/20180506.0759002">
      <time>
        <value>2018-05-06T07:59:43.450000Z</value>
        <uncertainty>0.5</uncertainty>
      </time>
      <waveformID networkCode="CN" stationCode="A16" locationCode="" channelCode="HHE"/>
      <phaseHint>S</phaseHint>
      <creationInfo>
        <agencyID>GSC</agencyID>
        <author>vpe</author>
        <creationTime>2018-05-07T00:00:00.000000Z</creationTime>
        <version>DAN</version>
      </creationInfo>
    </pick>
    <pick publicID="smi:ca.seismo/pick/solid/arrid/20180506.0759001/20180506.0759003">
      <time>
        <value>2018-05-06T07:59:43.790000Z</value>
        <uncertainty>0.5</uncertainty>
      </time>
      <waveformID networkCode="CN" stationCode="A16" locationCode="" channelCode="HHZ"/>
      <phaseHint>A</phaseHint>
      <creationInfo>
        <agencyID>GSC</agencyID>
        <author>vpe</author>
        <creationTime>2018-05-07T00:00:00.000000Z</creationTime>
        <version>DAN</version>
      </creationInfo>
    </pick>
    <pick publicID="smi:ca.seismo/pick/solid/arrid/20180506.0759001/20180506.0759004">
      <time>
        <value>2018-05-06T07:59:41.610000Z</value>
        <uncertainty>0.125</uncertainty>
      </time>
      <waveformID networkCode="CN" stationCode="A11" locationCode="" channelCode="HHZ"/>
      <phaseHint>P</phaseHint>
      <creationInfo>
        <agencyID>GSC</agencyID>
        <author>vpe</author>
        <creationTime>2018-05-07T00:00:00.000000Z</creationTime>
        <version>DAN</version>
      </creationInfo>
    </pick>
    <pick publicID="smi:ca.seismo/pick/solid/arrid/20180506.0759001/20180506.0759005">
      <time>
        <value>2018-05-06T07:59:44.340000Z</value>
        <uncertainty>0.5</uncertainty>
      </time>
      <waveformID networkCode="CN" stationCode="A11" locationCode="" channelCode="HHE"/>
      <phaseHint>S</phaseHint>
      <creationInfo>
        <agencyID>GSC</agencyID>
        <author>vpe</author>
        <creationTime>2018-05-07T00:00:00.000000Z</creationTime>
        <version>DAN</version>
      </creationInfo>
    </pick>
    <pick publicID="smi:ca.seismo/pick/solid/arrid/20180506.0759001/20180506.0759006">
      <time>
        <value>2018-05-06T07:59:44.370000Z</value>
        <uncertainty>0.5</uncertainty>
      </time>
      <waveformID networkCode="CN" stationCode="A11" locationCode="" channelCode="HHZ"/>
      <phaseHint>A</phaseHint>
      <creationInfo>
        <agencyID>GSC</agencyID>
        <author>vpe</author>
        <creationTime>2018-05-07T00:00:00.000000Z</creationTime>
        <version>DAN</version>
      </creationInfo>
    </pick>
    <pick publicID="smi:ca.seismo/pick/solid/arrid/20180506.0759001/20180506.0759007">
      <time>
        <value>2018-05-06T07:59:42.410000Z</value>
        <uncertainty>0.125</uncertainty>
      </time>
      <waveformID networkCode="CN" stationCode="A54" locationCode="" channelCode="HHZ"/>
      <phaseHint>P</phaseHint>
      <polarity>positive</polarity>
      <creationInfo>
        <agencyID>GSC</agencyID>
        <author>vpe</author>
        <creationTime>2018-05-07T00:00:00.000000Z</creationTime>
        <version>DAN</version>
      </creationInfo>
    </pick>
    <pick publicID="smi:ca.seismo/pick/solid/arrid/20180506.0759001/20180506.0759008">
      <time>
        <value>2018-05-06T07:59:45.620000Z</value>
        <uncertainty>0.125</uncertainty>
      </time>
      <waveformID networkCode="CN" stationCode="A54" locationCode="" channelCode="HHE"/>
      <phaseHint>S</phaseHint>
      <creationInfo>
        <agencyID>GSC</agencyID>
        <author>vpe</author>
        <creationTime>2018-05-07T00:00:00.000000Z</creationTime>
        <version>DAN</version>
      </creationInfo>
    </pick>
    <pick publicID="smi:ca.seismo/pick/solid/arrid/20180506.0759001/20180506.0759009">
      <time>
        <value>2018-05-06T07:59:45.750000Z</value>
        <uncertainty>0.5</uncertainty>
      </time>
      <waveformID networkCode="CN" stationCode="A54" locationCode="" channelCode="HHZ"/>
      <phaseHint>A</phaseHint>
      <creationInfo>
        <agencyID>GSC</agencyID>
        <author>vpe</author>
        <creationTime>2018-05-07T00:00:00.000000Z</creationTime>
        <version>DAN</version>
      </creationInfo>
    </pick>
    <pick publicID="smi:ca.seismo/pick/solid/arrid/20180506.0759001/20180506.0759010">
      <time>
        <value>2018-05-06T07:59:42.480000Z</value>
        <uncertainty>0.125</uncertainty>
      </time>
      <waveformID networkCode="CN" stationCode="LMQ" locationCode="" channelCode="HHZ"/>
      <phaseHint>P</phaseHint>
      <polarity>negative</polarity>
      <creationInfo>
        <agencyID>GSC</agencyID>
        <author>vpe</author>
        <creationTime>2018-05-07T00:00:00.000000Z</creationTime>
        <version>DAN</version>
      </creationInfo>
    </pick>
    <pick publicID="smi:ca.seismo/pick/solid/arrid/20180506.0759001/20180506.0759011">
      <time>
        <value>2018-05-06T07:59:45.850000Z</value>
        <uncertainty>0.5</uncertainty>
      </time>
      <waveformID networkCode="CN" stationCode="LMQ" locationCode="" channelCode="HHE"/>
      <phaseHint>S</phaseHint>
      <creationInfo>
        <agencyID>GSC</agencyID>
        <author>vpe</author>
        <creationTime>2018-05-07T00:00:00.000000Z</creationTime>
        <version>DAN</version>
      </creationInfo>
    </pick>
    <pick publicID="smi:ca.seismo/pick/solid/arrid/20180506.0759001/20180506.0759012">
      <time>
        <value>2018-05-06T07:59:46.260000Z</value>
        <uncertainty>0.5</uncertainty>
      </time>
      <waveformID networkCode="CN" stationCode="LMQ" locationCode="" channelCode="HHZ"/>
      <phaseHint>A</phaseHint>
      <creationInfo>
        <agencyID>GSC</agencyID>
        <author>vpe</author>
        <creationTime>2018-05-07T00:00:00.000000Z</creationTime>
        <version>DAN</version>
      </creationInfo>
    </pick>
    <pick publicID="smi:ca.seismo/pick/solid/arrid/20180506.0759001/20180506.0759013">
      <time>
        <value>2018-05-06T07:59:43.930000Z</value>
        <uncertainty>0.125</uncertainty>
      </time>
      <waveformID networkCode="CN" stationCode="A61" locationCode="" channelCode="HHZ"/>
      <phaseHint>P</phaseHint>
      <polarity>negative</polarity>
      <creationInfo>
        <agencyID>GSC</agencyID>
        <author>vpe</author>
        <creationTime>2018-05-07T00:00:00.000000Z</creationTime>
        <version>DAN</version>
      </creationInfo>
    </pick>
    <pick publicID="smi:ca.seismo/pick/solid/arrid/20180506.0759001/20180506.0759014">
      <time>
        <value>2018-05-06T07:59:48.520000Z</value>
        <uncertainty>0.125</uncertainty>
      </time>
      <waveformID networkCode="CN" stationCode="A61" locationCode="" channelCode="HHN"/>
      <phaseHint>S</phaseHint>
      <creationInfo>
        <agencyID>GSC</agencyID>
        <author>vpe</author>
        <creationTime>2018-05-07T00:00:00.000000Z</creationTime>
        <version>DAN</version>
      </creationInfo>
    </pick>
    <pick publicID="smi:ca.seismo/pick/solid/arrid/20180506.0759001/20180506.0759015">
      <time>
        <value>2018-05-06T07:59:49.090000Z</value>
        <uncertainty>0.5</uncertainty>
      </time>
      <waveformID networkCode="CN" stationCode="A61" locationCode="" channelCode="HHZ"/>
      <phaseHint>A</phaseHint>
      <creationInfo>
        <agencyID>GSC</agencyID>
        <author>vpe</author>
        <creationTime>2018-05-07T00:00:00.000000Z</creationTime>
        <version>DAN</version>
      </creationInfo>
    </pick>
    <pick publicID="smi:ca.seismo/pick/solid/arrid/20180506.0759001/20180506.0759016">
      <time>
        <value>2018-05-06T07:59:46.120000Z</value>
        <uncertainty>0.125</uncertainty>
      </time>
      <waveformID networkCode="CN" stationCode="A21" locationCode="" channelCode="HHZ"/>
      <phaseHint>P</phaseHint>
      <polarity>negative</polarity>
      <creationInfo>
        <agencyID>GSC</agencyID>
        <author>vpe</author>
        <creationTime>2018-05-07T00:00:00.000000Z</creationTime>
        <version>DAN</version>
      </creationInfo>
    </pick>
    <pick publicID="smi:ca.seismo/pick/solid/arrid/20180506.0759001/20180506.0759017">
      <time>
        <value>2018-05-06T07:59:52.350000Z</value>
        <uncertainty>0.5</uncertainty>
      </time>
      <waveformID networkCode="CN" stationCode="A21" locationCode="" channelCode="HHE"/>
      <phaseHint>S</phaseHint>
      <creationInfo>
        <agencyID>GSC</agencyID>
        <author>vpe</author>
        <creationTime>2018-05-07T00:00:00.000000Z</creationTime>
        <version>DAN</version>
      </creationInfo>
    </pick>
    <pick publicID="smi:ca.seismo/pick/solid/arrid/20180506.0759001/20180506.0759018">
      <time>
        <value>2018-05-06T07:59:53.720000Z</value>
        <uncertainty>0.5</uncertainty>
      </time>
      <waveformID networkCode="CN" stationCode="A21" locationCode="" channelCode="HHZ"/>
      <phaseHint>A</phaseHint>
      <creationInfo>
        <agencyID>GSC</agencyID>
        <author>vpe</author>
        <creationTime>2018-05-07T00:00:00.000000Z</creationTime>
        <version>DAN</version>
      </creationInfo>
    </pick>
    <pick publicID="smi:ca.seismo/pick/solid/arrid/20180506.0759001/20180506.0759019">
      <time>
        <value>2018-05-06T07:59:46.340000Z</value>
        <uncertainty>0.125</uncertainty>
      </time>
      <waveformID networkCode="CN" stationCode="A64" locationCode="" channelCode="HHZ"/>
      <phaseHint>P</phaseHint>
      <creationInfo>
        <agencyID>GSC</agencyID>
        <author>vpe</author>
        <creationTime>2018-05-07T00:00:00.000000Z</creationTime>
        <version>DAN</version>
      </creationInfo>
    </pick>
    <pick publicID="smi:ca.seismo/pick/solid/arrid/20180506.0759001/20180506.0759020">
      <time>
        <value>2018-05-06T07:59:52.870000Z</value>
        <uncertainty>0.125</uncertainty>
      </time>
      <waveformID networkCode="CN" stationCode="A64" locationCode="" channelCode="HHE"/>
      <phaseHint>S</phaseHint>
      <creationInfo>
        <agencyID>GSC</agencyID>
        <author>vpe</author>
        <creationTime>2018-05-07T00:00:00.000000Z</creationTime>
        <version>DAN</version>
      </creationInfo>
    </pick>
    <pick publicID="smi:ca.seismo/pick/solid/arrid/20180506.0759001/20180506.0759021">
      <time>
        <value>2018-05-06T07:59:54.890000Z</value>
        <uncertainty>0.5</uncertainty>
      </time>
      <waveformID networkCode="CN" stationCode="A64" locationCode="" channelCode="HHZ"/>
      <phaseHint>A</phaseHint>
      <creationInfo>
        <agencyID>GSC</agencyID>
        <author>vpe</author>
        <creationTime>2018-05-07T00:00:00.000000Z</creationTime>
        <version>DAN</version>
      </creationInfo>
    </pick>
    <pick publicID="smi:ca.seismo/pick/solid/arrid/20180506.0759001/20180506.0759022">
      <time>
        <value>2018-05-06T07:59:51.600000Z</value>
      </time>
      <waveformID networkCode="CN" stationCode="BSCQ" locationCode="" channelCode="HHZ"/>
      <phaseHint>P</phaseHint>
      <creationInfo>
        <agencyID>GSC</agencyID>
        <author>vpe</author>
        <creationTime>2018-05-07T00:00:00.000000Z</creationTime>
        <version>DAN</version>
      </creationInfo>
    </pick>
    <pick publicID="smi:ca.seismo/pick/solid/arrid/20180506.0759001/20180506.0759023">
      <time>
        <value>2018-05-06T07:59:52.980000Z</value>
      </time>
      <waveformID networkCode="CN" stationCode="BCLQ" locationCode="" channelCode="HHZ"/>
      <phaseHint>P</phaseHint>
      <creationInfo>
        <agencyID>GSC</agencyID>
        <author>vpe</author>
        <creationTime>2018-05-07T00:00:00.000000Z</creationTime>
        <version>DAN</version>
      </creationInfo>
    </pick>
    <pick publicID="smi:ca.seismo/pick/solid/arrid/20180506.0759001/20180506.0759024">
      <time>
        <value>2018-05-06T07:59:54.210000Z</value>
      </time>
      <waveformID networkCode="CN" stationCode="LDAQ" locationCode="" channelCode="HHZ"/>
      <phaseHint>P</phaseHint>
      <creationInfo>
        <agencyID>GSC</agencyID>
        <author>vpe</author>
        <creationTime>2018-05-07T00:00:00.000000Z</creationTime>
        <version>DAN</version>
      </creationInfo>
    </pick>
    <pick publicID="smi:ca.seismo/pick/solid/arrid/20180506.0759001/20180506.0759025">
      <time>
        <value>2018-05-06T07:59:56.650000Z</value>
      </time>
      <waveformID networkCode="CN" stationCode="LESQ" locationCode="" channelCode="HHZ"/>
      <phaseHint>P</phaseHint>
      <creationInfo>
        <agencyID>GSC</agencyID>
        <author>vpe</author>
        <creationTime>2018-05-07T00:00:00.000000Z</creationTime>
        <version>DAN</version>
      </creationInfo>
    </pick>
    <pick publicID="smi:ca.seismo/pick/solid/arrid/20180506.0759001/20180506.0800001">
      <time>
        <value>2018-05-06T08:00:02.490000Z</value>
      </time>
      <waveformID networkCode="CN" stationCode="BSCQ" locationCode="" channelCode="HHE"/>
      <phaseHint>S</phaseHint>
      <creationInfo>
        <agencyID>GSC</agencyID>
        <author>vpe</author>
        <creationTime>2018-05-07T00:00:00.000000Z</creationTime>
        <version>DAN</version>
      </creationInfo>
    </pick>
    <pick publicID="smi:ca.seismo/pick/solid/arrid/20180506.0759001/20180506.0800002">
      <time>
        <value>2018-05-06T08:00:02.770000Z</value>
        <uncertainty>0.5</uncertainty>
      </time>
      <waveformID networkCode="CN" stationCode="BSCQ" locationCode="" channelCode="HHZ"/>
      <phaseHint>A</phaseHint>
      <creationInfo>
        <agencyID>GSC</agencyID>
        <author>vpe</author>
        <creationTime>2018-05-07T00:00:00.000000Z</creationTime>
        <version>DAN</version>
      </creationInfo>
    </pick>
    <pick publicID="smi:ca.seismo/pick/solid/arrid/20180506.0759001/20180506.0800003">
      <time>
        <value>2018-05-06T08:00:03.970000Z</value>
      </time>
      <waveformID networkCode="CN" stationCode="BCLQ" locationCode="" channelCode="HHE"/>
      <phaseHint>S</phaseHint>
      <creationInfo>
        <agencyID>GSC</agencyID>
        <author>vpe</author>
        <creationTime>2018-05-07T00:00:00.000000Z</creationTime>
        <version>DAN</version>
      </creationInfo>
    </pick>
    <pick publicID="smi:ca.seismo/pick/solid/arrid/20180506.0759001/20180506.0800004">
      <time>
        <value>2018-05-06T08:00:04.280000Z</value>
        <uncertainty>0.5</uncertainty>
      </time>
      <waveformID networkCode="CN" stationCode="BCLQ" locationCode="" channelCode="HHZ"/>
      <phaseHint>A</phaseHint>
      <creationInfo>
        <agencyID>GSC</agencyID>
        <author>vpe</author>
        <creationTime>2018-05-07T00:00:00.000000Z</creationTime>
        <version>DAN</version>
      </creationInfo>
    </pick>
    <pick publicID="smi:ca.seismo/pick/solid/arrid/20180506.0759001/20180506.0800005">
      <time>
        <value>2018-05-06T08:00:07.010000Z</value>
      </time>
      <waveformID networkCode="CN" stationCode="LDAQ" locationCode="" channelCode="HHN"/>
      <phaseHint>S</phaseHint>
      <creationInfo>
        <agencyID>GSC</agencyID>
        <author>vpe</author>
        <creationTime>2018-05-07T00:00:00.000000Z</creationTime>
        <version>DAN</version>
      </creationInfo>
    </pick>
    <pick publicID="smi:ca.seismo/pick/solid/arrid/20180506.0759001/20180506.0800006">
      <time>
        <value>2018-05-06T08:00:08.430000Z</value>
        <uncertainty>0.5</uncertainty>
      </time>
      <waveformID networkCode="CN" stationCode="LDAQ" locationCode="" channelCode="HHZ"/>
      <phaseHint>A</phaseHint>
      <creationInfo>
        <agencyID>GSC</agencyID>
        <author>vpe</author>
        <creationTime>2018-05-07T00:00:00.000000Z</creationTime>
        <version>DAN</version>
      </creationInfo>
    </pick>
    <pick publicID="smi:ca.seismo/pick/solid/arrid/20180506.0759001/20180506.0800007">
      <time>
        <value>2018-05-06T08:00:09.880000Z</value>
      </time>
      <waveformID networkCode="CN" stationCode="LESQ" locationCode="" channelCode="HHE"/>
      <phaseHint>S</phaseHint>
      <creationInfo>
        <agencyID>GSC</agencyID>
        <author>vpe</author>
        <creationTime>2018-05-07T00:00:00.000000Z</creationTime>
        <version>DAN</version>
      </creationInfo>
    </pick>
    <pick publicID="smi:ca.seismo/pick/solid/arrid/20180506.0759001/20180506.0800008">
      <time>
        <value>2018-05-06T08:00:11.150000Z</value>
        <uncertainty>0.5</uncertainty>
      </time>
      <waveformID networkCode="CN" stationCode="LESQ" locationCode="" channelCode="HHZ"/>
      <phaseHint>A</phaseHint>
      <creationInfo>
        <agencyID>GSC</agencyID>
        <author>vpe</author>
        <creationTime>2018-05-07T00:00:00.000000Z</creationTime>
        <version>DAN</version>
      </creationInfo>
    </pick>
    <pick publicID="smi:ca.seismo/pick/solid/arrid/20180506.0759001/20180506.0800009">
      <time>
        <value>2018-05-06T08:00:33.710000Z</value>
      </time>
      <waveformID networkCode="CN" stationCode="BECQ" locationCode="" channelCode="HHN"/>
      <phaseHint>S</phaseHint>
      <creationInfo>
        <agencyID>GSC</agencyID>
        <author>vpe</author>
        <creationTime>2018-05-07T00:00:00.000000Z</creationTime>
        <version>DAN</version>
      </creationInfo>
    </pick>
    <pick publicID="smi:ca.seismo/pick/solid/arrid/20180506.0759001/20180506.0800010">
      <time>
        <value>2018-05-06T08:00:10.040000Z</value>
      </time>
      <waveformID networkCode="CN" stationCode="DPQ" locationCode="" channelCode="HHZ"/>
      <phaseHint>P</phaseHint>
      <creationInfo>
        <agencyID>GSC</agencyID>
        <author>vpe</author>
        <creationTime>2018-05-07T00:00:00.000000Z</creationTime>
        <version>DAN</version>
      </creationInfo>
    </pick>
    <pick publicID="smi:ca.seismo/pick/solid/arrid/20180506.0759001/20180506.0800011">
      <time>
        <value>2018-05-06T08:00:33.760000Z</value>
      </time>
      <waveformID networkCode="CN" stationCode="DPQ" locationCode="" channelCode="HHN"/>
      <phaseHint>S</phaseHint>
      <creationInfo>
        <agencyID>GSC</agencyID>
        <author>vpe</author>
        <creationTime>2018-05-07T00:00:00.000000Z</creationTime>
        <version>DAN</version>
      </creationInfo>
    </pick>
    <pick publicID="smi:ca.seismo/pick/solid/arrid/20180506.0759001/20180506.0800012">
      <time>
        <value>2018-05-06T08:00:42.980000Z</value>
        <uncertainty>0.5</uncertainty>
      </time>
      <waveformID networkCode="CN" stationCode="DPQ" locationCode="" channelCode="HHZ"/>
      <phaseHint>A</phaseHint>
      <creationInfo>
        <agencyID>GSC</agencyID>
        <author>vpe</author>
        <creationTime>2018-05-07T00:00:00.000000Z</creationTime>
        <version>DAN</version>
      </creationInfo>
    </pick>
    <pick publicID="smi:ca.seismo/pick/solid/arrid/20180506.0759001/20180506.0800013">
      <time>
        <value>2018-05-06T08:00:14.025000Z</value>
      </time>
